IRIDIUM 26              
1 24903U 97043A   25096.81733569  .00000781  00000+0  25667-3 0  9999
2 24903  86.3961 140.6068 0002194  88.9049 271.2399 14.37069057446494
IRIDIUM 22              
1 24907U 97043E   25096.82779911  .00000690  00000+0  23129-3 0  9995
2 24907  86.3973 144.0772 0002258  93.9514 266.1941 14.35893249446532
DUMMY MASS 1            
1 24925U 97048A   25097.21793625  .00000914  00000+0  99118-4 0  9993
2 24925  86.3400 168.1295 0008343  51.7552 308.4422 14.86912481494824
DUMMY MASS 2            
1 24926U 97048B   25097.23559319  .00000914  00000+0  99776-4 0  9996
2 24926  86.3402 169.7135 0009401  59.7143 300.5011 14.86665363494604
IRIDIUM 33              
1 24946U 97051C   25097.19828720  .00000578  00000+0  19675-3 0  9997
2 24946  86.3936 172.9080 0006156 322.4985  37.5781 14.34841468442576
IRIDIUM 28              
1 24948U 97051E   25096.75611956  .00000770  00000+0  25176-3 0  9998
2 24948  86.4025 171.3979 0001932  85.6004 274.5414 14.37320373443583
IRIDIUM 36              
1 24967U 97056C   25096.79997177  .00000997  00000+0  32631-3 0  9995
2 24967  86.4031 202.9496 0001901  98.2598 261.8815 14.37532147441968
